QIANFAN-33              
1 61566U 24185Q   25276.61401411  .00000916  00000+0  65383-3 0  9997
2 61566  88.9736  86.6271 0006999 168.4075 191.7265 13.96460659 59375
QIANFAN-34              
1 61567U 24185R   25276.58141623  .00000916  00000+0  59015-3 0  9995
2 61567  88.9715  86.2873 0005806 175.2783 184.8453 14.02213002 59520
QIANFAN-35              
1 61568U 24185S   25276.61856932  .00001988  00000+0  79911-3 0  9993
2 61568  88.9739  85.1103 0007845 141.8358 218.3393 14.27785922 60174
QIANFAN-36              
1 61569U 24185T   25276.61868295  .00000265  00000+0  36474-3 0  9993
2 61569  88.9721  88.3504 0004408 236.1415 123.9320 13.55559896 58425
QIANFAN-37              
1 62238U 24232B   25276.63117472  .00000188  00000+0  27289-3 0  9994
2 62238  88.9998  48.3941 0001198  89.0855 271.0433 13.50967694 89701
QIANFAN-38              
1 62239U 24232C   25276.65594363  .00000184  00000+0  26549-3 0  9999
2 62239  89.0003  48.3027 0015486  43.9497 316.2883 13.50976342 89769
QIANFAN-39              
1 62240U 24232D   25276.64091086  .00001198  00000+0  50320-3 0  9994
2 62240  89.0002  45.3116 0014346 313.0654  46.9337 14.25273154 91405
QIANFAN-40              
1 62241U 24232E   25276.61476175  .00000185  00000+0  26720-3 0  9990
2 62241  89.0033  47.8718 0014720  51.8664 308.3812 13.50975883 90125
